STARLINK-30837          
1 58212U 23170G   23344.33013683  .00009260  00000+0  48479-3 0  9995
2 58212  43.0005 334.5747 0001524 287.3936  72.6744 15.15993794  6868
STARLINK-30813          
1 58213U 23170H   23344.38479915  .00025245  00000+0  12967-2 0  9998
2 58213  42.9988 334.9890 0001022 250.4084 109.6653 15.16036734  6861
STARLINK-30805          
1 58214U 23170J   23344.38252050  .00015996  00000+0  82753-3 0  9991
2 58214  42.9989 334.9709 0001151 248.5930 111.4794 15.16014964  6861
STARLINK-30851          
1 58215U 23170K   23344.38022980  .00009199  00000+0  48165-3 0  9996
2 58215  42.9996 334.9535 0001253 283.9500  76.1208 15.15996004  6866
STARLINK-30786          
1 58216U 23170L   23341.20248318 -.00588996  00000+0 -12707-1 0  9990
2 58216  42.9991 350.6551 0003131 202.7595 157.3125 15.45979379  6415
STARLINK-30818          
1 58217U 23170M   23344.37567766  .00010777  00000+0  56201-3 0  9997
2 58217  43.0001 334.9192 0001158 287.0340  73.0380 15.16002576  6867
STARLINK-30794          
1 58218U 23170N   23344.38920062  .00009084  00000+0  47584-3 0  9994
2 58218  42.9975 334.1525 0000656 266.4956  93.5816 15.15991438  6879
STARLINK-30835          
1 58219U 23170P   23344.37112048  .00006528  00000+0  34532-3 0  9990
2 58219  43.0011 334.8838 0001386 259.3316 100.7376 15.16001292  6861
STARLINK-30792          
1 58220U 23170Q   23344.36885093  .00010098  00000+0  52742-3 0  9998
2 58220  43.0008 334.8681 0001159 269.0768  90.9947 15.16000210  6865
STARLINK-30836          
1 58221U 23170R   23344.36656942  .00004813  00000+0  25775-3 0  9992
2 58221  43.0006 334.8508 0001083 274.1384  85.9340 15.16001472  6861
STARLINK-30855          
1 58222U 23170S   23344.33925016  .00006586  00000+0  34832-3 0  9994
2 58222  42.9988 334.6435 0001131 298.0607  62.0125 15.15994497  6766
STARLINK-30840          
1 58223U 23170T   23344.33697792  .00005477  00000+0  29170-3 0  9999
2 58223  43.0013 334.6252 0001215 281.9638  78.1073 15.16000598  6865
STARLINK-30875          
1 58224U 23170U   23344.37785925  .00001664  00000+0  97120-4 0  9995
2 58224  43.0000 334.0629 0001446 298.1085  61.9616 15.15938948  6878
STARLINK-30872          
1 58225U 23170V   23344.91668981  .00056587  00000+0  28944-2 0  9998
2 58225  43.0001 330.2105 0002202 269.9245 157.1402 15.15851923  6027
STARLINK-30865          
1 58226U 23170W   23344.91668981  .00053461  00000+0  27271-2 0  9999
2 58226  42.9999 330.1511 0001828 281.5898 170.1533 15.15971524  6074
STARLINK-30874          
1 58227U 23170X   23344.35520348  .00023632  00000+0  12150-2 0  9999
2 58227  42.9991 334.7663 0001115 271.7491  88.3229 15.16032004  6764
STARLINK-30871          
1 58228U 23170Y   23344.35063563  .00005788  00000+0  30762-3 0  9993
2 58228  42.9967 334.7285 0000599   5.2949 354.7905 15.15989708  6864
STARLINK-30861          
1 58230U 23171A   23344.57700425  .00001506  00000+0  88937-4 0  9998
2 58230  43.0010  69.5279 0001208 271.6699  88.4009 15.15963744  6298
STARLINK-30867          
1 58231U 23171B   23344.57473667  .00001186  00000+0  72591-4 0  9997
2 58231  43.0014  69.5096 0001723 280.2508  79.8145 15.15960815  6276
STARLINK-30880          
1 58232U 23171C   23344.57246976 -.00003469  00000+0 -16577-3 0  9998
2 58232  43.0048  69.4928 0001783 272.1082  87.9561 15.15952369  6233
STARLINK-30777          
1 58233U 23171D   23344.43611630 -.00001897  00000+0 -85208-4 0  9998
2 58233  43.0001  70.1905 0001352 295.2570  64.8137 15.15968999  6214
STARLINK-30860          
1 58234U 23171E   23344.57017846  .00002268  00000+0  12792-3 0  9991
2 58234  43.0019  69.4760 0000820 274.8064  85.2690 15.15956512  6279
STARLINK-30879          
1 58235U 23171F   23344.91668981 -.00006440  00000+0 -31771-3 0  9998
2 58235  43.0014  66.7998 0001682 272.7281 133.5648 15.15991970  6292
STARLINK-30853          
1 58236U 23171G   23344.56334514  .00001162  00000+0  71348-4 0  9991
2 58236  43.0020  69.4232 0001332 258.7064 101.3634 15.15962901  6274
STARLINK-30866          
1 58237U 23171H   23344.91668981 -.00009431  00000+0 -47133-3 0  9992
2 58237  43.0008  66.9557 0001554 266.5687  75.5515 15.15971029  6346
STARLINK-30817          
1 58238U 23171J   23344.42701619  .00000390  00000+0  31841-4 0  9998
2 58238  43.0004  70.1195 0001263 295.4441  64.6275 15.15960352  6253
STARLINK-30847          
1 58239U 23171K   23344.42474117  .00002661  00000+0  14806-3 0  9993
2 58239  42.9995  70.1030 0001374 295.9120  64.1586 15.15958861  6253
STARLINK-30848          
1 58240U 23171L   23344.91668981 -.00005826  00000+0 -28654-3 0  9997
2 58240  43.0015  66.7680 0002613 263.5315 155.2011 15.15958641  6358
STARLINK-30843          
1 58241U 23171M   23344.91668981 -.00004574  00000+0 -22265-3 0  9999
2 58241  43.0013  66.7383 0001331 272.8734 158.4379 15.15917574  6353
STARLINK-30877          
1 58242U 23171N   23344.91668981 -.00008530  00000+0 -42515-3 0  9996
2 58242  43.0013  66.8890 0001750 260.1153 108.8803 15.15963920  5994
STARLINK-30864          
1 58243U 23171P   23344.41335988 -.00001754  00000+0 -77868-4 0  9991
2 58243  43.0016  70.0136 0001223 235.8030 124.2702 15.15974706  6160
STARLINK-30854          
1 58244U 23171Q   23344.41563332  .00001602  00000+0  93871-4 0  9990
2 58244  43.0014  70.0319 0000871 256.9567 103.1183 15.15953659  6252
STARLINK-30849          
1 58245U 23171R   23344.54285392 -.00001690  00000+0 -74603-4 0  9993
2 58245  43.0011  69.2667 0001132 285.3250  74.7472 15.15965661  6285
STARLINK-30886          
1 58246U 23171S   23344.53829815  .00005396  00000+0  28777-3 0  9992
2 58246  43.0004  69.2312 0001608 279.9785  80.0881 15.15971772  6278
STARLINK-30850          
1 58247U 23171T   23344.40879993 -.00003414  00000+0 -16284-3 0  9992
2 58247  43.0018  69.9801 0001031 282.2216  77.8515 15.15977213  6252
STARLINK-30823          
1 58248U 23171U   23344.47013490 -.00001069  00000+0 -42831-4 0  9994
2 58248  42.9997  69.5780 0000767 277.4211  82.6549 15.15963458  6263
STARLINK-30873          
1 58249U 23171V   23344.46785645 -.00003060  00000+0 -14468-3 0  9999
2 58249  43.0006  69.5642 0002022 305.8105  54.2554 15.15978980  6265
STARLINK-30808          
1 58250U 23171W   23344.53146683 -.00000393  00000+0 -82158-5 0  9991
2 58250  43.0011  69.1675 0001691 276.7546  83.3109 15.15969982  6273
STARLINK-30881          
1 58251U 23171X   23344.91668981 -.00011482  00000+0 -57681-3 0  9996
2 58251  43.0004  65.2360 0001315 277.8252  42.9773 15.15955363  6303
STARLINK-30883          
1 58252U 23171Y   23344.91668981 -.00008019  00000+0 -39901-3 0  9994
2 58252  43.0016  66.8279 0001417 275.5018 118.3651 15.15959321  6357
STARLINK-30901          
1 58351U 23177A   23344.91668981  .00137579  00000+0  90666-3 0  9997
2 58351  43.0021 131.2993 0002144 283.6490 204.8988 15.74461046  4781
STARLINK-30907          
1 58352U 23177B   23344.91668981 -.02133311  00000+0 -63071-1 0  9990
2 58352  43.0000 133.1342 0000294 265.4849 200.3242 15.37494004  4882
STARLINK-30896          
1 58353U 23177C   23341.91667824 -.02352168  00000+0 -48114-1 0  9997
2 58353  43.0005 150.8353 0001493 267.3533 288.9258 15.48628712  4256
STARLINK-30832          
1 58354U 23177D   23344.91668981 -.02129793  00000+0 -50194-1 0  9993
2 58354  43.0002 133.3503 0001563 274.2914 102.6833 15.44802740  4662
STARLINK-30903          
1 58355U 23177E   23344.91668981 -.02157039  00000+0 -69504-1 0  9993
2 58355  43.0001 133.5151 0001571 265.8755  43.8872 15.34872912  4836
STARLINK-30905          
1 58356U 23177F   23344.91668981  .00048371  00000+0  87582-3 0  9996
2 58356  43.0001 133.3293 0001573 279.2573 106.5376 15.48893616  4779
STARLINK-30842          
1 58357U 23177G   23339.92583822  .00148104  00000+0  10846-2 0  9995
2 58357  43.0000 162.1518 0003292 256.4650 103.5851 15.71961101  4105
STARLINK-30858          
1 58358U 23177H   23344.91668981 -.02158334  00000+0 -66449-1 0  9990
2 58358  43.0000 133.4745 0001690 269.1822  56.7330 15.36281522  4835
STARLINK-30878          
1 58359U 23177J   23344.91668981 -.02126961  00000+0 -48715-1 0  9998
2 58359  43.0001 133.3352 0001690 281.2196 102.2124 15.45622435  4884
STARLINK-30897          
1 58360U 23177K   23343.75001157  .00035586  00000+0  64841-3 0  9995
2 58360  43.0001 140.1290 0001905 272.4939  82.8577 15.48830190  4640
STARLINK-30885          
1 58361U 23177L   23344.91668981 -.02157766  00000+0 -64428-1 0  9997
2 58361  43.0001 133.4491 0001630 271.7402  64.0992 15.37220215  4834
STARLINK-30890          
1 58362U 23177M   23344.91668981 -.02159553  00000+0 -62531-1 0  9997
2 58362  43.0001 133.4274 0001562 273.9596  71.1285 15.38159614  4778
STARLINK-30909          
1 58363U 23177N   23344.91668981 -.02159931  00000+0 -61581-1 0  9992
2 58363  43.0001 133.4173 0001570 268.9968  80.4614 15.38629823  4811
STARLINK-30904          
1 58364U 23177P   23344.91668981 -.02165468  00000+0 -59230-1 0  9993
2 58364  43.0001 133.1676 0001365 274.8920 176.5100 15.39891232  4827
STARLINK-30918          
1 58365U 23177Q   23344.91668981 -.02160835  00000+0 -58796-1 0  9993
2 58365  43.0001 133.3871 0001642 273.2602  88.2980 15.40038276  4823
STARLINK-30892          
1 58366U 23177R   23344.91668981 -.02160722  00000+0 -59716-1 0  9992
2 58366  43.0001 133.3974 0001705 268.5987  89.0941 15.39569444  4821
STARLINK-30891          
1 58367U 23177S   23344.91668981 -.02161834  00000+0 -57008-1 0  9990
2 58367  43.0001 133.3694 0001634 274.9680  93.8125 15.40977260  4652
STARLINK-30889          
1 58368U 23177T   23344.91668981 -.02159966  00000+0 -57854-1 0  9993
2 58368  43.0001 133.3784 0001782 271.9834  93.2698 15.40507487  4823
STARLINK-30870          
1 58369U 23177U   23344.91668981 -.02123223  00000+0 -56082-1 0  9993
2 58369  43.0001 133.3609 0001717 275.7091  96.4296 15.41445882  4825
